XRISM                   
1 57800U 23137A   23319.39789551  .00004702  00000+0  37596-3 0  9996
2 57800  31.0047 296.9316 0010509 241.7842 118.1732 14.98608640 10332
